[
    {
        "Altitude(m)": 604221.2243355511,
        "Argument of Periapsis(deg)": 0.0,
        "Eccentricity": 0.0,
        "Inclination(deg)": 60.0,
        "Latitude(deg)": 14.117359954802502,
        "Longitude(deg)": 138.33416645394942,
        "Mean Anomaly(deg)": 16.363599999999984,
        "RAAN(deg)": 229.99999999999997,
        "Satellite Name": "Test1 1013",
        "Satellite Number": 1013,
        "Semi-Major Axis(m)": 6980739.136638005,
        "Time(s)": 0
    },
    {
        "Altitude(m)": 604235.365893496,
        "Argument of Periapsis(deg)": 0.00010418945913296404,
        "Eccentricity": 0.0,
        "Inclination(deg)": 60.0,
        "Latitude(deg)": 14.65175645470903,
        "Longitude(deg)": 138.62261404657698,
        "Mean Anomaly(deg)": 16.983706145461838,
        "RAAN(deg)": 229.99957995086024,
        "Satellite Name": "Test1 1013",
        "Satellite Number": 1013,
        "Semi-Major Axis(m)": 6980739.136638005,
        "Time(s)": 10
    }
]